{
    "links": {
        "self": "http://www.neowsapp.com/rest/v1/neo/3792433?api_key=iIulBulltgU6a56xZRHN4H3l9WmuAYTsLGpBGhQ2"
    },
    "id": "3792433",
    "neo_reference_id": "3792433",
    "name": "(2017 XU61)",
    "designation": "2017 XU61",
    "nasa_jpl_url": "http://ssd.jpl.nasa.gov/sbdb.cgi?sstr=3792433",
    "absolute_magnitude_h": 26.3,
    "estimated_diameter": {
        "kilometers": {
            "estimated_diameter_min": 0.0146067964,
            "estimated_diameter_max": 0.0326617897
        },
        "meters": {
            "estimated_diameter_min": 14.6067964271,
            "estimated_diameter_max": 32.6617897446
        },
        "miles": {
            "estimated_diameter_min": 0.0090762397,
            "estimated_diameter_max": 0.020295089
        },
        "feet": {
            "estimated_diameter_min": 47.92256199,
            "estimated_diameter_max": 107.1581062656
        }
    },
    "is_potentially_hazardous_asteroid": false,
    "close_approach_data": [
        {
            "close_approach_date": "2017-12-09",
            "close_approach_date_full": "2017-Dec-09 22:41",
            "epoch_date_close_approach": 1512859260000,
            "relative_velocity": {
                "kilometers_per_second": "13.8495454323",
                "kilometers_per_hour": "49858.3635562231",
                "miles_per_hour": "30980.0481774765"
            },
            "miss_distance": {
                "astronomical": "0.0273471197",
                "lunar": "10.6380295633",
                "kilometers": "4091070.857755039",
                "miles": "2542073.5534919782"
            },
            "orbiting_body": "Earth"
        }
    ],
    "orbital_data": {
        "orbit_id": "1",
        "orbit_determination_date": "2017-12-17 10:42:19",
        "first_observation_date": "2017-12-15",
        "last_observation_date": "2017-12-17",
        "data_arc_in_days": 2,
        "observations_used": 23,
        "orbit_uncertainty": "8",
        "minimum_orbit_intersection": ".0128685",
        "jupiter_tisserand_invariant": "3.765",
        "epoch_osculation": "2458102.5",
        "eccentricity": ".5576659150128053",
        "semi_major_axis": "1.878914105108926",
        "inclination": "3.359940237944239",
        "ascending_node_longitude": "88.23325686291744",
        "orbital_period": "940.7166199748104",
        "perihelion_distance": ".8311077514528907",
        "perihelion_argument": "291.203260366711",
        "aphelion_distance": "2.926720458764962",
        "perihelion_time": "2458057.688096332709",
        "mean_anomaly": "17.14893197130581",
        "mean_motion": ".3826869775189469",
        "equinox": "J2000",
        "orbit_class": {
            "orbit_class_type": "APO",
            "orbit_class_description": "Near-Earth asteroid orbits which cross the Earth’s orbit similar to that of 1862 Apollo",
            "orbit_class_range": "a (semi-major axis) > 1.0 AU; q (perihelion) < 1.017 AU"
        }
    },
    "is_sentry_object": false
}